{
  "schema_version": 1,
  "seed": "42",
  "age_s": 2.534128698733254e+17,
  "stars": [
    {
      "mass_kg": 9.985510979204443e+29,
      "radius_m": 400889227.48129445,
      "luminosity_w": 2.432113528611903e+25,
      "temperature_k": 3817.4917711636,
      "main_sequence_lifetime_s": 1.7670732315645555e+18,
      "orbit": null
    },
    {
      "mass_kg": 2.3551175615682886e+29,
      "radius_m": 126222920.39456184,
      "luminosity_w": 6.508919492444552e+23,
      "temperature_k": 2751.7086859897922,
      "main_sequence_lifetime_s": 6.541070117245465e+19,
      "orbit": {
        "semi_major_axis_m": 4445414927.108157,
        "eccentricity": 0.293266643636562,
        "inclination_rad": 0.03564950805102585,
        "raan_rad": 3.5647237583759273,
        "arg_periapsis_rad": 0.11943406740929241,
        "mean_anomaly_epoch_rad": 5.0101221715925846
      }
    }
  ],
  "planet_host": "Barycenter",
  "planets": [
    {
      "class": "GasGiant",
      "mass_kg": 8.251597896487598e+26,
      "radius_m": 73403757.16326924,
      "orbit": {
        "semi_major_axis_m": 524483614107.4422,
        "eccentricity": 0.15520516764561015,
        "inclination_rad": 0.0025822985407093213,
        "raan_rad": 6.086715704753005,
        "arg_periapsis_rad": 4.792428309085663,
        "mean_anomaly_epoch_rad": 0.7356401997221235
      },
      "secular": {
        "apsidal_rad_per_s": 1.2833767625243063e-16,
        "nodal_rad_per_s": 0.0,
        "migration_m_per_s": 0.0
      },
      "axial_tilt_rad": 0.5441807393250957,
      "axial_precession_rad_per_s": 8.093049840668672e-12,
      "rotation_period_s": 48247.75139714352,
      "spin_drift_s_per_s": 7.9878120927165e-14,
      "state": {
        "kind": "Living"
      },
      "moons": [
        {
          "mass_kg": 2.3214563553876944e+23,
          "radius_m": 2643525.7980971974,
          "orbit": {
            "semi_major_axis_m": 586888719.8041669,
            "eccentricity": 0.03475899957285249,
            "inclination_rad": 0.0674090193472147,
            "raan_rad": 1.08456189005951,
            "arg_periapsis_rad": 3.22181882534835,
            "mean_anomaly_epoch_rad": 3.117708586714401
          },
          "secular": {
            "apsidal_rad_per_s": 5.435031701701701e-11,
            "nodal_rad_per_s": -2.5881103341436672e-11,
            "migration_m_per_s": 6.3893677100624316e-6
          },
          "tidally_locked": true,
          "rotation_period_s": 380663.83777276706,
          "doom_time_s": null
        },
        {
          "mass_kg": 3.1540907691991812e+22,
          "radius_m": 1359006.2096106235,
          "orbit": {
            "semi_major_axis_m": 1142425162.452912,
            "eccentricity": 0.07886833242433791,
            "inclination_rad": 0.038033261176194474,
            "raan_rad": 1.907845500578028,
            "arg_periapsis_rad": 4.899666347316804,
            "mean_anomaly_epoch_rad": 5.61140679327284
          },
          "secular": {
            "apsidal_rad_per_s": 1.478370720754887e-10,
            "nodal_rad_per_s": -7.039860575023272e-11,
            "migration_m_per_s": 2.226258338834877e-8
          },
          "tidally_locked": true,
          "rotation_period_s": 1033831.1614360511,
          "doom_time_s": null
        },
        {
          "mass_kg": 3.2343730253741244e+22,
          "radius_m": 1370440.172190441,
          "orbit": {
            "semi_major_axis_m": 2679587493.9543557,
            "eccentricity": 0.04619213994769813,
            "inclination_rad": 0.030869452858838457,
            "raan_rad": 4.750588495529249,
            "arg_periapsis_rad": 2.9286013257703005,
            "mean_anomaly_epoch_rad": 3.324485195433051
          },
          "secular": {
            "apsidal_rad_per_s": 5.311911783306633e-10,
            "nodal_rad_per_s": -2.529481801574587e-10,
            "migration_m_per_s": 2.0997639558266967e-10
          },
          "tidally_locked": true,
          "rotation_period_s": 3713726.2856832286,
          "doom_time_s": null
        },
        {
          "mass_kg": 2.0222552966126478e+22,
          "radius_m": 1171859.0343179053,
          "orbit": {
            "semi_major_axis_m": 6940990814.625276,
            "eccentricity": 0.04956241516892602,
            "inclination_rad": 0.0753843411723844,
            "raan_rad": 0.8938369299364852,
            "arg_periapsis_rad": 0.30083424796301533,
            "mean_anomaly_epoch_rad": 1.4856778793265524
          },
          "secular": {
            "apsidal_rad_per_s": 2.2092910236085112e-9,
            "nodal_rad_per_s": -1.0520433445754815e-9,
            "migration_m_per_s": 6.99474603186371e-13
          },
          "tidally_locked": false,
          "rotation_period_s": 47872.541722374095,
          "doom_time_s": null
        }
      ],
      "calendar": null
    },
    {
      "class": "GasGiant",
      "mass_kg": 2.6577123280472933e+26,
      "radius_m": 71128564.56680815,
      "orbit": {
        "semi_major_axis_m": 960769429702.456,
        "eccentricity": 0.04349785301922278,
        "inclination_rad": 0.0002686314754314634,
        "raan_rad": 0.8052867585503239,
        "arg_periapsis_rad": 1.9540110441916234,
        "mean_anomaly_epoch_rad": 5.138639768854618
      },
      "secular": {
        "apsidal_rad_per_s": 2.7629237866858735e-17,
        "nodal_rad_per_s": 0.0,
        "migration_m_per_s": 0.0
      },
      "axial_tilt_rad": 2.226535522698232,
      "axial_precession_rad_per_s": 5.1315144175527204e-12,
      "rotation_period_s": 33982.95728194288,
      "spin_drift_s_per_s": 1.5387694858652517e-13,
      "state": {
        "kind": "Living"
      },
      "moons": [
        {
          "mass_kg": 3.1522767226138794e+22,
          "radius_m": 1358745.6196300576,
          "orbit": {
            "semi_major_axis_m": 356084432.7417181,
            "eccentricity": 0.03741388705850986,
            "inclination_rad": 0.004727700058456076,
            "raan_rad": 6.0153225846707645,
            "arg_periapsis_rad": 3.494302201623176,
            "mean_anomaly_epoch_rad": 5.8234369520688665
          },
          "secular": {
            "apsidal_rad_per_s": 7.37961686179928e-12,
            "nodal_rad_per_s": -3.514103267523467e-12,
            "migration_m_per_s": 0.00002039298363693949
          },
          "tidally_locked": true,
          "rotation_period_s": 316995.0660226925,
          "doom_time_s": null
        },
        {
          "mass_kg": 1.3955314216732704e+22,
          "radius_m": 1035563.1434814543,
          "orbit": {
            "semi_major_axis_m": 705348509.8541425,
            "eccentricity": 0.030592217650543818,
            "inclination_rad": 0.07004371300057137,
            "raan_rad": 2.7813928263960275,
            "arg_periapsis_rad": 5.3147328628718755,
            "mean_anomaly_epoch_rad": 3.142986423255542
          },
          "secular": {
            "apsidal_rad_per_s": 2.0523366147019103e-11,
            "nodal_rad_per_s": -9.773031498580525e-12,
            "migration_m_per_s": 2.1033756640402352e-7
          },
          "tidally_locked": true,
          "rotation_period_s": 883748.4209560145,
          "doom_time_s": null
        }
      ],
      "calendar": null
    }
  ],
  "anchor_planet": 1
}
